{
  "norad_id": 53663,
  "name": "STARLINK-4457",
  "history": [
    {
      "epoch": "2026-03-28T16:50:06.924192Z",
      "apogee_km": 550.9867731704544,
      "perigee_km": 548.0411359845675,
      "latitude_deg": 7.146696072809954e-05,
      "longitude_deg": -108.64579556181165,
      "height_km": 552.4420011523795,
      "semi_major_axis_km": 6927.650954577511,
      "eccentricity": 0.0002126,
      "inclination_deg": 97.603,
      "raan_deg": 330.0012,
      "arg_perigee_deg": 84.7949,
      "mean_anomaly_deg": 275.3521,
      "mean_motion_rev_day": 15.05649087
    },
    {
      "epoch": "2026-03-29T04:00:00.909216Z",
      "apogee_km": 550.9739462764028,
      "perigee_km": 548.0504783088163,
      "latitude_deg": -8.050753725275604e-05,
      "longitude_deg": 83.87915689526933,
      "height_km": 552.4663794161237,
      "semi_major_axis_km": 6927.649212292609,
      "eccentricity": 0.000211,
      "inclination_deg": 97.603,
      "raan_deg": 330.4596,
      "arg_perigee_deg": 85.7806,
      "mean_anomaly_deg": 274.3661,
      "mean_motion_rev_day": 15.05649655
    },
    {
      "epoch": "2026-03-30T02:19:48.771264Z",
      "apogee_km": 550.9277519452271,
      "perigee_km": 548.0901881558948,
      "latitude_deg": -5.199522284978713e-06,
      "longitude_deg": 108.92966329378525,
      "height_km": 552.4972405643532,
      "semi_major_axis_km": 6927.645970050561,
      "eccentricity": 0.0002048,
      "inclination_deg": 97.6031,
      "raan_deg": 331.3766,
      "arg_perigee_deg": 87.0287,
      "mean_anomaly_deg": 273.1174,
      "mean_motion_rev_day": 15.05650712
    },
    {
      "epoch": "2026-03-30T15:05:25.032480Z",
      "apogee_km": 550.9710104049082,
      "perigee_km": 548.0647206357262,
      "latitude_deg": -3.679355214513061e-05,
      "longitude_deg": -82.47155785673867,
      "height_km": 552.4710986767138,
      "semi_major_axis_km": 6927.654865520317,
      "eccentricity": 0.00020976,
      "inclination_deg": 97.6031,
      "raan_deg": 331.9005,
      "arg_perigee_deg": 85.7183,
      "mean_anomaly_deg": 274.4283,
      "mean_motion_rev_day": 15.05647812
    },
    {
      "epoch": "2026-03-31T10:13:48.951264Z",
      "apogee_km": 551.1139836656403,
      "perigee_km": 547.9067600383669,
      "latitude_deg": 2.0388678427096003e-06,
      "longitude_deg": -9.570474526711134,
      "height_km": 552.3346026141072,
      "semi_major_axis_km": 6927.647371852003,
      "eccentricity": 0.00023148,
      "inclination_deg": 97.6026,
      "raan_deg": 332.6873,
      "arg_perigee_deg": 81.4965,
      "mean_anomaly_deg": 278.6524,
      "mean_motion_rev_day": 15.05650255
    },
    {
      "epoch": "2026-04-01T18:07:48.955008Z",
      "apogee_km": 550.9505695702201,
      "perigee_km": 548.1074554386887,
      "latitude_deg": 2.721520303025847e-05,
      "longitude_deg": -128.0712782228038,
      "height_km": 552.4548381479109,
      "semi_major_axis_km": 6927.666012504455,
      "eccentricity": 0.0002052,
      "inclination_deg": 97.603,
      "raan_deg": 333.9966,
      "arg_perigee_deg": 84.5114,
      "mean_anomaly_deg": 275.6347,
      "mean_motion_rev_day": 15.05644178
    },
    {
      "epoch": "2026-04-02T10:04:48.867456Z",
      "apogee_km": 551.0178938959398,
      "perigee_km": 548.0064448020239,
      "latitude_deg": 2.8555790867631496e-05,
      "longitude_deg": -7.3210552313164765,
      "height_km": 552.4378436682925,
      "semi_major_axis_km": 6927.649169348982,
      "eccentricity": 0.00021735,
      "inclination_deg": 97.6032,
      "raan_deg": 334.6515,
      "arg_perigee_deg": 84.8215,
      "mean_anomaly_deg": 275.326,
      "mean_motion_rev_day": 15.05649669
    },
    {
      "epoch": "2026-04-02T22:50:24.871200Z",
      "apogee_km": 551.0723216626357,
      "perigee_km": 547.960973856354,
      "latitude_deg": -2.8820464751237063e-05,
      "longitude_deg": 161.27880253494104,
      "height_km": 552.4627645947464,
      "semi_major_axis_km": 6927.653647759495,
      "eccentricity": 0.00022456,
      "inclination_deg": 97.6033,
      "raan_deg": 335.1754,
      "arg_perigee_deg": 85.7482,
      "mean_anomaly_deg": 274.4001,
      "mean_motion_rev_day": 15.05648209
    },
    {
      "epoch": "2026-04-03T14:47:24.732672Z",
      "apogee_km": 551.045317570145,
      "perigee_km": 547.9680582439769,
      "latitude_deg": -3.3441639396564145e-05,
      "longitude_deg": -77.9704613082304,
      "height_km": 552.443024329652,
      "semi_major_axis_km": 6927.643687907061,
      "eccentricity": 0.0002221,
      "inclination_deg": 97.6027,
      "raan_deg": 335.8306,
      "arg_perigee_deg": 85.3332,
      "mean_anomaly_deg": 274.8148,
      "mean_motion_rev_day": 15.05651456
    }
  ]
}